{
    "links": {
        "self": "http://www.neowsapp.com/rest/v1/neo/3785922?api_key=iIulBulltgU6a56xZRHN4H3l9WmuAYTsLGpBGhQ2"
    },
    "id": "3785922",
    "neo_reference_id": "3785922",
    "name": "(2017 TQ5)",
    "designation": "2017 TQ5",
    "nasa_jpl_url": "http://ssd.jpl.nasa.gov/sbdb.cgi?sstr=3785922",
    "absolute_magnitude_h": 27.5,
    "estimated_diameter": {
        "kilometers": {
            "estimated_diameter_min": 0.008405334,
            "estimated_diameter_max": 0.0187948982
        },
        "meters": {
            "estimated_diameter_min": 8.4053340207,
            "estimated_diameter_max": 18.7948982439
        },
        "miles": {
            "estimated_diameter_min": 0.0052228308,
            "estimated_diameter_max": 0.0116786047
        },
        "feet": {
            "estimated_diameter_min": 27.5765560686,
            "estimated_diameter_max": 61.6630539546
        }
    },
    "is_potentially_hazardous_asteroid": false,
    "close_approach_data": [
        {
            "close_approach_date": "2015-09-06",
            "close_approach_date_full": "2015-Sep-06 15:18",
            "epoch_date_close_approach": 1441552680000,
            "relative_velocity": {
                "kilometers_per_second": "17.9078205671",
                "kilometers_per_hour": "64468.154041479",
                "miles_per_hour": "40058.0038264957"
            },
            "miss_distance": {
                "astronomical": "0.4170463803",
                "lunar": "162.2310419367",
                "kilometers": "62389250.184089961",
                "miles": "38766882.4201690218"
            },
            "orbiting_body": "Earth"
        },
        {
            "close_approach_date": "2017-10-22",
            "close_approach_date_full": "2017-Oct-22 14:03",
            "epoch_date_close_approach": 1508680980000,
            "relative_velocity": {
                "kilometers_per_second": "5.8518959856",
                "kilometers_per_hour": "21066.825548311",
                "miles_per_hour": "13090.1061302825"
            },
            "miss_distance": {
                "astronomical": "0.01420281",
                "lunar": "5.52489309",
                "kilometers": "2124710.1240147",
                "miles": "1320233.65101486"
            },
            "orbiting_body": "Earth"
        },
        {
            "close_approach_date": "2019-08-27",
            "close_approach_date_full": "2019-Aug-27 20:34",
            "epoch_date_close_approach": 1566938040000,
            "relative_velocity": {
                "kilometers_per_second": "2.7525220147",
                "kilometers_per_hour": "9909.0792529224",
                "miles_per_hour": "6157.1164946839"
            },
            "miss_distance": {
                "astronomical": "0.4645976426",
                "lunar": "180.7284829714",
                "kilometers": "69502817.739981262",
                "miles": "43187048.3335829356"
            },
            "orbiting_body": "Earth"
        },
        {
            "close_approach_date": "2019-12-21",
            "close_approach_date_full": "2019-Dec-21 04:05",
            "epoch_date_close_approach": 1576901100000,
            "relative_velocity": {
                "kilometers_per_second": "14.9387298163",
                "kilometers_per_hour": "53779.4273386447",
                "miles_per_hour": "33416.4447260595"
            },
            "miss_distance": {
                "astronomical": "0.3239469737",
                "lunar": "126.0153727693",
                "kilometers": "48461777.258466019",
                "miles": "30112752.0415443022"
            },
            "orbiting_body": "Earth"
        },
        {
            "close_approach_date": "2052-12-15",
            "close_approach_date_full": "2052-Dec-15 01:39",
            "epoch_date_close_approach": 2617839540000,
            "relative_velocity": {
                "kilometers_per_second": "12.2731142979",
                "kilometers_per_hour": "44183.211472305",
                "miles_per_hour": "27453.7293728886"
            },
            "miss_distance": {
                "astronomical": "0.2380720256",
                "lunar": "92.6100179584",
                "kilometers": "35615067.936345472",
                "miles": "22130177.0257006336"
            },
            "orbiting_body": "Earth"
        }
    ],
    "orbital_data": {
        "orbit_id": "6",
        "orbit_determination_date": "2020-09-11 07:38:31",
        "first_observation_date": "2017-10-14",
        "last_observation_date": "2017-10-27",
        "data_arc_in_days": 13,
        "observations_used": 32,
        "orbit_uncertainty": "7",
        "minimum_orbit_intersection": ".0138582",
        "jupiter_tisserand_invariant": "4.240",
        "epoch_osculation": "2459000.5",
        "eccentricity": ".3814947446508229",
        "semi_major_axis": "1.619941766433059",
        "inclination": "4.849311980700453",
        "ascending_node_longitude": "208.6206220199932",
        "orbital_period": "753.0911276766521",
        "perihelion_distance": "1.001942495898476",
        "perihelion_argument": "193.9344201621125",
        "aphelion_distance": "2.237941036967642",
        "perihelion_time": "2458813.595459744496",
        "mean_anomaly": "89.34593971324959",
        "mean_motion": ".4780297984795406",
        "equinox": "J2000",
        "orbit_class": {
            "orbit_class_type": "APO",
            "orbit_class_description": "Near-Earth asteroid orbits which cross the Earth’s orbit similar to that of 1862 Apollo",
            "orbit_class_range": "a (semi-major axis) > 1.0 AU; q (perihelion) < 1.017 AU"
        }
    },
    "is_sentry_object": false
}